OBJECT_NAME,OBJECT_ID,EPOCH,MEAN_MOTION,ECCENTRICITY,INCLINATION,RA_OF_ASC_NODE,ARG_OF_PERICENTER,MEAN_ANOMALY,EPHEMERIS_TYPE,CLASSIFICATION_TYPE,NORAD_CAT_ID,ELEMENT_SET_NO,REV_AT_EPOCH,BSTAR,MEAN_MOTION_DOT,MEAN_MOTION_DDOT
STARLINK-11287 [DTC],2024-158J,2026-07-15T19:08:02.114016,15.69708368,.00006846,53.1581,9.8620,99.7932,260.3163,0,U,60998,999,10770,-.6001627E-5,-.1315E-4,0
STARLINK-11270 [DTC],2024-158K,2026-07-15T20:32:39.144768,15.69771592,.000068,53.1571,9.5191,65.2492,294.8597,0,U,60999,999,10771,.12309E-2,.151682E-2,0
STARLINK-11290 [DTC],2024-158L,2026-07-15T11:15:30.606336,15.69686843,.00005352,53.1600,11.3697,161.9758,198.1279,0,U,61000,999,10772,-.1192579E-5,-.732E-5,0
STARLINK-11274 [DTC],2024-158M,2026-07-15T18:39:46.890720,15.69697114,.0001034,53.1596,9.7358,54.7674,305.3441,0,U,61001,999,10770,.14537134E-4,.1172E-4,0
STARLINK-11288 [DTC],2024-158N,2026-07-15T18:32:42.812736,15.69702140,.00010285,53.1595,9.7056,66.7886,293.3240,0,U,61002,999,10770,.22225618E-4,.2104E-4,0
STARLINK-32279,2024-158P,2026-07-16T03:01:59.181024,15.34379771,.000135,53.1602,187.6730,89.2041,270.9116,0,U,61003,999,10533,.49137E-5,-.21E-5,0
STARLINK-32336,2024-158Q,2026-07-16T03:11:03.806016,15.34388795,.0001414,53.1614,187.7139,96.7710,263.3454,0,U,61004,999,10533,.11669E-4,.18E-6,0
STARLINK-32284,2024-158R,2026-07-16T02:58:56.339616,15.34385988,.0001357,53.1597,187.6625,92.3159,267.7999,0,U,61005,999,10526,.44806E-4,.1137E-4,0
STARLINK-32282,2024-158S,2026-07-16T03:29:14.385696,15.34386497,.0001313,53.1586,187.7860,85.3007,274.8145,0,U,61006,999,10533,.39325E-4,.952E-5,0
STARLINK-32360,2024-158T,2026-07-16T04:55:17.228928,15.34390972,.0001236,53.1595,171.4484,87.8754,272.2390,0,U,61007,999,10549,.33051E-4,.74E-5,0
STARLINK-32340,2024-158U,2026-07-16T03:08:00.941280,15.34391922,.000146,53.1595,187.6253,95.6104,264.5065,0,U,61008,999,10526,.42121E-4,.1047E-4,0
STARLINK-32347,2024-158W,2026-07-16T03:20:09.117888,15.34386714,.0001242,53.1602,187.7462,91.3515,268.7630,0,U,61010,999,10526,.2942E-4,.617E-5,0
STARLINK-11286 [DTC],2024-164A,2026-07-15T19:46:48.254304,15.69709660,.00011067,53.1584,39.6339,117.5931,242.5199,0,U,61050,999,10554,.1156042E-5,-.449E-5,0
STARLINK-11252 [DTC],2024-164B,2026-07-15T19:39:44.570304,15.69704796,.00012748,53.1605,39.5925,86.9201,273.1963,0,U,61051,999,10554,.10781252E-4,.717E-5,0
STARLINK-11230 [DTC],2024-164D,2026-07-15T22:28:58.008000,15.69728055,.0000727,53.1580,38.9046,110.2671,249.8425,0,U,61053,999,10556,-.82783E-5,-.1592E-4,0
STARLINK-11294 [DTC],2024-164E,2026-07-15T19:18:33.217632,15.69702415,.00011364,53.1606,39.5005,66.2266,293.8871,0,U,61054,999,10554,.11244308E-4,.773E-5,0
STARLINK-11268 [DTC],2024-164F,2026-07-15T22:14:50.843904,15.69707108,.0000947,53.1599,38.8393,93.0610,267.0516,0,U,61055,999,10556,.19047E-4,.1719E-4,0
STARLINK-11156 [DTC],2024-164G,2026-07-16T01:10:54.679008,15.69340039,.0001573,53.1589,38.1761,138.8480,221.2656,0,U,61056,999,10558,.48312E-3,.57454E-3,0
STARLINK-11231 [DTC],2024-164H,2026-07-15T23:32:33.031104,15.69706501,.00013,53.1595,39.1906,146.3139,213.7962,0,U,61057,999,10556,.18918E-4,.1703E-4,0
STARLINK-11299 [DTC],2024-164J,2026-07-15T20:22:07.508064,15.69703830,.0000944,53.1586,39.7883,49.5262,310.5838,0,U,61058,999,10554,.1141E-4,.794E-5,0
STARLINK-11154 [DTC],2024-164K,2026-07-15T20:15:03.276288,15.69704017,.00006052,53.1586,39.7567,112.6726,247.4356,0,U,61059,999,10554,.16265626E-4,.1383E-4,0
STARLINK-11297 [DTC],2024-164L,2026-07-15T23:11:21.516000,15.69711687,.0000867,53.1582,39.0953,106.5790,253.5324,0,U,61060,999,10556,.12403E-4,.915E-5,0
STARLINK-11233 [DTC],2024-164M,2026-07-15T20:00:55.997280,15.69704125,.00009533,53.1590,39.6897,98.3129,261.7998,0,U,61061,999,10554,.8527031E-5,.445E-5,0
STARLINK-11236 [DTC],2024-164N,2026-07-15T21:25:32.928672,15.69711716,.0001103,53.1596,39.3402,75.4145,284.6996,0,U,61062,999,10555,.57097E-5,.103E-5,0
STARLINK-32350,2024-164P,2026-07-16T01:45:24.840288,15.31700570,.0001224,53.1588,214.0851,83.9312,276.1828,0,U,61063,999,10314,.38622E-4,.834E-5,0
STARLINK-32378,2024-164Q,2026-07-16T01:52:08.113152,15.31700488,.0001223,53.1591,214.1141,89.8806,270.2335,0,U,61064,999,10314,.11138E-4,-.19E-6,0
STARLINK-32321,2024-164R,2026-07-15T18:10:32.499840,15.30201241,.00011513,53.1598,216.3759,87.1026,273.0107,0,U,61065,999,10308,.70043346E-4,.1716E-4,0
STARLINK-32381,2024-164S,2026-07-15T13:43:36.106752,15.30187149,.0000972,53.1585,217.3487,86.7360,273.3751,0,U,61066,999,10305,-.80053E-4,-.2728E-4,0
STARLINK-32385,2024-164U,2026-07-15T18:15:46.557792,15.31697531,.0001146,53.1584,215.6906,82.6109,277.5023,0,U,61068,999,10309,.11833976E-4,.2E-7,0
STARLINK-32380,2024-164V,2026-07-15T18:09:03.346272,15.31705195,.00012815,53.1594,215.6598,78.3640,281.7506,0,U,61069,999,10309,-.4266162E-5,-.498E-5,0
STARLINK-32375,2024-164W,2026-07-16T02:05:22.549056,15.30200039,.0001456,53.1579,214.8726,62.6224,297.4925,0,U,61070,999,10313,-.31821E-4,-.1302E-4,0
STARLINK-11209 [DTC],2024-171A,2026-07-15T12:31:20.635104,15.69696097,.0001218,53.1589,266.2895,79.4495,280.6660,0,U,61200,999,10538,.23194E-4,.222E-4,0
STARLINK-11257 [DTC],2024-171B,2026-07-15T10:52:35.793120,15.69693746,.00012809,53.1599,266.5657,91.9749,268.1416,0,U,61201,999,10446,.21699594E-4,.2039E-4,0
STARLINK-11309 [DTC],2024-171C,2026-07-16T05:05:43.503648,15.69714435,.000113,53.1589,262.7667,85.0972,275.0175,0,U,61202,999,10458,.13741E-4,.1076E-4,0
STARLINK-11292 [DTC],2024-171D,2026-07-16T04:58:39.667584,15.69713851,.0001012,53.1587,262.7318,113.0883,247.0242,0,U,61203,999,10458,.11424E-4,.796E-5,0
STARLINK-11302 [DTC],2024-171E,2026-07-16T04:51:35.582688,15.69714474,.0001238,53.1580,262.6999,62.5813,297.5331,0,U,61204,999,10458,.14602E-4,.1181E-4,0
STARLINK-11277 [DTC],2024-171F,2026-07-16T04:37:27.985728,15.69715560,.0001153,53.1589,262.6344,92.8450,267.2700,0,U,61205,999,10458,.80798E-5,.39E-5,0
STARLINK-11279 [DTC],2024-171G,2026-07-15T10:10:12.477792,15.69694230,.00010257,53.1596,266.3694,80.9309,279.1825,0,U,61206,999,10446,.26771188E-4,.2654E-4,0
STARLINK-11091 [DTC],2024-171H,2026-07-15T10:24:21.100320,15.69689552,.00011595,53.1586,266.4350,111.1851,248.9291,0,U,61207,999,10446,.2022826E-4,.1861E-4,0
STARLINK-11291 [DTC],2024-171J,2026-07-16T04:23:20.101920,15.69717382,.0001167,53.1594,262.5660,123.0600,237.0530,0,U,61208,999,10458,.10142E-4,.64E-5,0
STARLINK-11304 [DTC],2024-171K,2026-07-15T11:27:46.071648,15.69696588,.00009558,53.1586,265.9854,86.3895,273.7232,0,U,61209,999,10538,.26054697E-4,.2567E-4,0
STARLINK-11307 [DTC],2024-171L,2026-07-15T11:20:51.307584,15.69690040,.00006039,53.1589,266.6888,61.3906,298.7172,0,U,61210,999,10446,.36758542E-4,.3864E-4,0
STARLINK-11298 [DTC],2024-171M,2026-07-15T11:13:47.445600,15.69685059,.00011791,53.1594,266.6609,91.4125,268.7028,0,U,61211,999,10446,.32898029E-4,.3395E-4,0
STARLINK-11310 [DTC],2024-171N,2026-07-16T03:55:13.855584,15.69714867,.000102,53.1575,263.1720,78.2119,281.9013,0,U,61212,999,10457,.10621E-4,.699E-5,0
STARLINK-32386,2024-171P,2026-07-16T01:30:52.625376,15.34388307,.0001442,53.1596,83.9951,96.0020,264.1147,0,U,61213,999,10205,.36437E-4,.854E-5,0
STARLINK-32392,2024-171Q,2026-07-16T01:46:01.244064,15.34386295,.0001574,53.1609,84.0547,67.7282,292.3887,0,U,61214,999,10205,.41969E-4,.1041E-4,0
STARLINK-32436,2024-171R,2026-07-15T23:20:50.301888,15.34399680,.0001701,53.1611,84.8539,113.6121,246.5060,0,U,61215,999,10203,-.47815E-4,-.1992E-4,0
STARLINK-32425,2024-171S,2026-07-16T02:40:04.210176,15.31701316,.0001299,53.1609,85.7124,83.7917,276.3232,0,U,61216,999,10203,.35114E-4,.725E-5,0
STARLINK-32342,2024-171T,2026-07-15T23:18:42.211296,15.31702742,.0001427,53.1608,86.2578,76.2505,283.8656,0,U,61217,999,10292,.3545E-4,.735E-5,0
STARLINK-32423,2024-171U,2026-07-16T02:33:20.916576,15.31700326,.0001439,53.1611,85.6823,79.8161,280.3002,0,U,61218,999,10294,.18183E-4,.199E-5,0
STARLINK-32248,2024-171V,2026-07-15T23:11:59.169120,15.31698268,.0001357,53.1605,86.2197,72.0134,288.1016,0,U,61219,999,10292,.54568E-4,.1328E-4,0
STARLINK-11300 [DTC],2024-175A,2026-07-16T02:16:27.487776,15.69713967,.0001158,53.1600,143.3002,79.3567,280.7582,0,U,61243,999,10353,-.15216E-5,-.773E-5,0
STARLINK-11276 [DTC],2024-175B,2026-07-16T02:09:23.783904,15.69706219,.0000801,53.1600,143.2685,87.7528,272.3582,0,U,61244,999,10353,.50953E-5,.29E-6,0
STARLINK-11280 [DTC],2024-175C,2026-07-16T01:55:16.192128,15.69708916,.0001035,53.1595,143.2124,73.5564,286.5568,0,U,61245,999,10353,.59519E-5,.133E-5,0
STARLINK-11308 [DTC],2024-175D,2026-07-16T03:34:00.869952,15.69706011,.0000573,53.1595,142.9231,54.7172,305.3900,0,U,61246,999,10354,.1519E-4,.1253E-4,0
STARLINK-11305 [DTC],2024-175E,2026-07-16T03:19:52.946400,15.69715260,.0000769,53.1577,142.8578,91.4911,268.6195,0,U,61247,999,10354,.30687E-5,-.216E-5,0
STARLINK-11317 [DTC],2024-175F,2026-07-16T03:12:49.131072,15.69714646,.000083,53.1566,142.8229,118.4297,241.6805,0,U,61248,999,10354,.82493E-5,.411E-5,0
STARLINK-11293 [DTC],2024-175G,2026-07-16T03:05:45.814272,15.69704111,.0001015,53.1582,142.7905,69.3345,290.7781,0,U,61249,999,10354,.17482E-4,.1529E-4,0
STARLINK-11319 [DTC],2024-175J,2026-07-16T02:51:46.229184,15.69717808,.000071,53.1583,143.4590,136.5754,223.5320,0,U,61251,999,10353,-.10883E-5,-.72E-5,0
STARLINK-11318 [DTC],2024-175K,2026-07-16T02:44:42.814752,15.69713931,.0000866,53.1594,143.4256,42.2837,317.8247,0,U,61252,999,10470,-.21969E-6,-.615E-5,0
STARLINK-11311 [DTC],2024-175L,2026-07-16T02:37:39.334656,15.69708123,.0001118,53.1597,143.3942,56.1233,303.9891,0,U,61253,999,10474,.20504E-4,.1896E-4,0
STARLINK-11306 [DTC],2024-175M,2026-07-16T02:30:35.510688,15.69689734,.0001151,53.1587,143.3591,100.9173,259.1974,0,U,61254,999,10473,.37325E-4,.3932E-4,0
STARLINK-11313 [DTC],2024-175N,2026-07-16T00:51:50.205600,15.69706257,.0001225,53.1595,143.6381,123.7258,236.3877,0,U,61255,999,10352,.11295E-4,.779E-5,0
